#aV2013  8 10  0  0  0.00000000     288 DD+AD WGS84 FIT  NGA
## 1752 518400.00000000   300.00000000 56514 0.0000000000000
+   31     1  2  3  4  5  6  7  8  9 10 11 12 13 14 15 16 17
+         18 19 20 21 22 23 24 25 26 27 28 29 31 32  0  0  0
+          0  0  0  0  0  0  0  0  0  0  0  0  0  0  0  0  0
+          0  0  0  0  0  0  0  0  0  0  0  0  0  0  0  0  0
+          0  0  0  0  0  0  0  0  0  0  0  0  0  0  0  0  0
++         2  2  2  2  2  2  2  2  2  2  2  2  2  2  2  2  2
++         2  2  2  2  2  2  2  2  2  2  2  2  2  2  2  0  0
++         0  0  0  0  0  0  0  0  0  0  0  0  0  0  0  0  0
++         0  0  0  0  0  0  0  0  0  0  0  0  0  0  0  0  0
++         0  0  0  0  0  0  0  0  0  0  0  0  0  0  0  0  0
%c cc cc ccc ccc cccc cccc cccc cccc ccccc ccccc ccccc ccccc
%c cc cc ccc ccc cccc cccc cccc cccc ccccc ccccc ccccc ccccc
%f  0.0000000  0.000000000  0.00000000000  0.000000000000000
%f  0.0000000  0.000000000  0.00000000000  0.000000000000000
%i    0    0    0    0      0      0      0      0         0
%i    0    0    0    0      0      0      0      0         0
/*      NGA, ST. LOUIS,MO.                                  
/*   EPHEMERIS COMPUTED FROM  1 DAYS OF DATA
/*   EPOCHA SMOOTHER  
/* CCCCCCCCCCCCCCCCCCCCCCCCCCCCCCCCCCCCCCCCCCCCCCCCCCCCCCCCC
*  2013  8 10  7 45  0.00000000                                                 
P  1 -14014.194383   7239.140114  21333.934466     61.219943                    
V  1  -4510.467374 -26785.671082   6218.669374      0.046972                    
P  2  13515.724852  18160.692569 -14063.287996    445.846781                    
V  2    699.726961  18230.356985  23332.828442      0.018017                    
P  3 -24765.830331  -9137.077350  -4325.356704    244.076650                    
V  3   5470.920122  -2123.140736 -30414.427773      0.050768                    
P  4   7402.050656  24942.805109  -4838.991729    295.948602                    
V  4  -2712.362718   6339.684230  30611.699934      0.103036                    
P  5  16367.951939   5532.352886 -20235.208371   -399.408284                    
V  5 -19392.738806  16811.825234 -10957.001723     -0.002399                    
P  6 -21416.760601 -13487.296493  -8597.076243    100.572989                    
V  6  11272.377983    649.075042 -28498.686328     -0.187778                    
P  7  -6796.017320  21376.600417 -13919.076655    245.720027                    
V  7  -4278.396955 -17457.847206 -24941.941437      0.042196                    
P  8  -1468.794902  25919.128696  -3608.796891      7.879485                    
V  8  -2275.774950  -4722.950806 -32541.141616      0.001905                    
P  9    784.073194  26157.045651  -4661.029855    260.325527                    
V  9  -2825.806930  -4870.620719 -31621.616170      0.024540                    
P 10    846.891046  17653.170283 -20004.495744    -90.068664                    
V 10 -20663.313438  14031.550069  12101.285140     -0.014360                    
P 11 -17658.606878   -389.646555  19436.917456   -408.885756                    
V 11  -9894.299471 -24019.784981  -8993.407168     -0.035669                    
P 12  22878.855289  -8601.909858  10087.474829    149.679534                    
V 12  -9187.141931   9291.039973  28828.535461      0.021663                    
P 13 -12548.086440   9685.730757 -21468.809041     91.484597                    
V 13 -23630.733633 -12782.632697   7957.064494     -0.037423                    
P 14  -8030.854774 -17730.259294  18352.911487    218.152885                    
V 14  21051.392840   8805.788139  17772.190848     -0.006172                    
P 15  24670.118431   1066.831018  10098.622112   -131.543629                    
V 15  11076.255461   7058.246396 -27461.488640     -0.017500                    
P 16 -15701.648603  -5717.989642 -20759.156072   -248.888972                    
V 16  20968.062715 -15608.965840 -11250.395796      0.006218                    
P 17   6506.091313  17440.268083  19256.068494     -9.741816                    
V 17 -22284.381671  -8677.248823  15336.386033     -0.037903                    
P 18  13513.481092 -20482.203512  10131.626455    268.006218                    
V 18  11984.828001  -4938.052919 -27446.280237      0.019642                    
P 19 -24836.160961  -7375.747732   6691.813217   -395.449987                    
V 19  -6585.400275  -5889.778773 -30018.762217     -0.028523                    
P 20 -21792.077233  14134.409674   5186.620119    114.757116                    
V 20   2574.510529  -7416.101049  30101.517250      0.024112                    
P 21   4155.040925 -23625.820695 -10244.946213   -312.828779                    
V 21   5843.716145  13370.690645 -27463.432097     -0.019395                    
P 22   2628.092739 -19444.902725  18038.834815    179.426181                    
V 22  19109.760994 -12408.356433 -16490.838480      0.016176                    
P 23 -21055.182974   3578.841369 -15958.308877     58.896456                    
V 23 -18075.003536  -9360.482754  21231.489406     -0.035088                    
P 24  14978.212141  -2906.698824  21729.876230    -11.578966                    
V 24   4363.483533  27276.246711    683.800379     -0.007067                    
P 25  19420.076178 -17861.957812  -2606.823477    133.581586                    
V 25   4081.394722    -94.223796  31868.681824      0.047493                    
P 26  22622.883203  13998.854187  -3277.545936    135.671861                    
V 26  -3841.563326    207.123909 -31575.738516      0.173082                    
P 27 -22941.490905 -12540.956653  -4718.800758    -21.995582                    
V 27   6569.738063   -375.018599 -30991.113185     -0.048907                    
P 28  -7150.413435  19182.868808  17407.829935    282.944996                    
V 28 -17892.440394  11049.598119 -20380.608460      0.032193                    
P 29  14458.241786  -8877.700204 -20380.196327    460.932671                    
V 29  23243.127752  11623.360492  11443.817272      0.032445                    
P 31  -6781.162379 -24874.075028  -5560.067856    323.051990                    
V 31   1479.955462  -7552.795991  31318.917833      0.009929                    
P 32 -22725.533109   4044.343553  12773.274132   -555.463628                    
V 32  11945.768879 -11417.668177  25627.748941      0.016124                    
EOF
